OBJECT_NAME,OBJECT_ID,EPOCH,MEAN_MOTION,ECCENTRICITY,INCLINATION,RA_OF_ASC_NODE,ARG_OF_PERICENTER,MEAN_ANOMALY,EPHEMERIS_TYPE,CLASSIFICATION_TYPE,NORAD_CAT_ID,ELEMENT_SET_NO,REV_AT_EPOCH,BSTAR,MEAN_MOTION_DOT,MEAN_MOTION_DDOT
STARLINK-32434,2024-207B,2026-07-16T14:23:56.484384,15.27602302,.0002252,43.0045,274.0425,281.4217,78.6382,0,U,61913,999,9443,.27969E-3,.7447E-4,0
STARLINK-32460,2024-207C,2026-07-16T14:38:32.156160,15.27580995,.0001513,43.0017,273.2544,272.2784,87.7895,0,U,61914,999,9444,.33719E-3,.9028E-4,0
STARLINK-32559,2024-207D,2026-07-16T20:00:01.999008,15.53174112,.0001935,42.9987,269.0745,284.3476,353.6153,0,U,61915,999,580,.10475E-1,.730132E-2,0
STARLINK-32541,2024-207E,2026-07-16T14:19:32.312928,15.27588457,.0001331,43.0008,277.4736,278.1457,81.9243,0,U,61916,999,9439,.22915E-3,.605E-4,0
STARLINK-32544,2024-207F,2026-07-16T13:35:49.502688,15.27592161,.0001429,42.9978,273.7824,276.3423,83.7266,0,U,61917,999,9443,.32178E-3,.8606E-4,0
STARLINK-32555,2024-207G,2026-07-16T14:36:11.685312,15.27586199,.0001895,43.0033,277.5612,273.0748,86.9886,0,U,61918,999,9439,.45614E-3,.12313E-3,0
STARLINK-32547,2024-207H,2026-07-16T06:49:35.552064,15.27591345,.0001321,42.9971,275.1049,237.6151,122.4573,0,U,61919,999,9438,.29836E-3,.796E-4,0
STARLINK-32616,2024-207J,2026-07-16T12:22:01.471584,15.27590087,.0001647,43.0001,274.2581,280.9807,79.0859,0,U,61920,999,9442,.26914E-3,.7154E-4,0
STARLINK-32605,2024-207K,2026-07-16T15:04:25.809600,15.27593849,.0001452,42.9998,273.3856,280.8170,79.2518,0,U,61921,999,9444,.38345E-3,.10309E-3,0
STARLINK-32579,2024-207L,2026-07-16T07:57:21.643200,15.27588976,.0001308,42.9995,278.9208,280.5934,79.4770,0,U,61922,999,9435,.26565E-3,.7057E-4,0
STARLINK-32537,2024-207M,2026-07-16T14:39:53.380800,15.27589807,.0001552,43.0017,277.5777,268.4674,91.6000,0,U,61923,999,9439,.24948E-3,.6611E-4,0
STARLINK-32564,2024-207N,2026-07-16T14:30:38.411136,15.27596455,.0001349,43.0025,277.5302,277.1330,82.9368,0,U,61924,999,9439,.30535E-3,.8154E-4,0
STARLINK-32536,2024-207P,2026-07-16T06:54:39.553920,15.27587043,.0001354,43.0016,279.4509,248.2786,111.7921,0,U,61925,999,9434,.23035E-3,.6083E-4,0
STARLINK-32624,2024-207Q,2026-07-16T14:31:06.810816,15.27595377,.0003264,43.0056,273.2173,291.6877,68.3627,0,U,61926,999,9444,.44718E-3,.1207E-3,0
STARLINK-32622,2024-207R,2026-07-16T14:42:13.508640,15.27593653,.0001838,43.0016,273.2722,273.2205,86.8436,0,U,61927,999,9444,.27273E-3,.7253E-4,0
STARLINK-32620,2024-207S,2026-07-16T13:50:37.592736,15.27591115,.000156,43.0003,273.8587,273.4646,86.6028,0,U,61928,999,9443,.25786E-3,.6843E-4,0
STARLINK-32609,2024-207T,2026-07-16T13:39:31.396032,15.27598915,.0002114,43.0023,273.8021,279.6862,80.3751,0,U,61929,999,9443,.45971E-3,.12417E-3,0
STARLINK-32567,2024-207U,2026-07-16T04:35:38.173056,15.27591112,.00013291,43.0034,272.6529,271.7309,88.3390,0,U,61930,999,9500,.37400958E-3,.10047E-3,0
STARLINK-32420,2024-207V,2026-07-16T11:45:01.021824,15.27590352,.0001632,43.0000,274.0662,270.1310,89.9355,0,U,61931,999,9442,.27166E-3,.7223E-4,0
STARLINK-32354,2024-207W,2026-07-16T14:25:05.219904,15.27590156,.0001617,43.0015,277.4990,281.8743,78.1928,0,U,61932,999,9488,.24955E-3,.6613E-4,0
STARLINK-32361,2024-207X,2026-07-16T16:01:47.290944,15.27589644,.0001574,43.0016,273.6641,275.7200,84.3473,0,U,61933,999,9444,.21837E-3,.5753E-4,0
STARLINK-32500,2024-207Z,2026-07-16T12:34:16.625856,15.27591077,.0000993,42.9976,277.7787,265.2332,94.8406,0,U,61935,999,9438,.32484E-3,.8691E-4,0
HAIYANG-4 01,2024-208A,2026-07-16T20:55:11.448192,14.73283104,.0002334,98.0037,205.2227,82.7336,277.4137,0,U,61936,999,8981,.39153E-4,.203E-5,0
STARLINK-11407 [DTC],2024-209A,2026-07-16T10:42:26.305056,15.69739083,.0001178,53.1578,96.3171,67.0802,293.0341,0,U,61939,999,9696,.838E-3,.102318E-2,0
STARLINK-11337 [DTC],2024-209B,2026-07-16T10:35:22.468992,15.69741756,.0001631,53.1578,96.2845,82.4467,277.6736,0,U,61940,999,9694,.11318E-2,.139027E-2,0
STARLINK-11353 [DTC],2024-209C,2026-07-16T10:28:18.411744,15.69741849,.0001018,53.1578,96.2510,80.0946,280.0187,0,U,61941,999,9690,.72484E-3,.88281E-3,0
STARLINK-11320 [DTC],2024-209D,2026-07-16T19:31:29.812800,15.69822117,.0001258,53.1571,95.0692,48.5898,311.5227,0,U,61942,999,9695,.14311E-2,.177372E-2,0
STARLINK-11425 [DTC],2024-209E,2026-07-16T17:52:44.665824,15.69764546,.0001422,53.1567,95.3503,99.0972,261.0206,0,U,61943,999,9694,.14643E-2,.181148E-2,0
STARLINK-11422 [DTC],2024-209F,2026-07-16T17:45:40.932576,15.69748196,.0001203,53.1573,95.3186,105.4721,254.6429,0,U,61944,999,9694,.11645E-2,.143176E-2,0
STARLINK-11421 [DTC],2024-209G,2026-07-16T17:38:36.906432,15.69782973,.0001011,53.1577,95.2856,112.1695,247.9430,0,U,61945,999,9694,.13942E-2,.172394E-2,0
