STARLINK-32434          
1 61913U 24207B   26197.59995931  .00007447  00000+0  27969-3 0  9997
2 61913  43.0045 274.0425 0002252 281.4217  78.6382 15.27602302 94430
STARLINK-32460          
1 61914U 24207C   26197.61009440  .00009028  00000+0  33719-3 0  9999
2 61914  43.0017 273.2544 0001513 272.2784  87.7895 15.27580995 94443
STARLINK-32559          
1 61915U 24207D   26197.83335647  .00730132  00000+0  10475-1 0  9994
2 61915  42.9987 269.0745 0001935 284.3476 353.6153 15.53174112  5807
STARLINK-32541          
1 61916U 24207E   26197.59690177  .00006050  00000+0  22915-3 0  9999
2 61916  43.0008 277.4736 0001331 278.1457  81.9243 15.27588457 94392
STARLINK-32544          
1 61917U 24207F   26197.56654517  .00008606  00000+0  32178-3 0  9996
2 61917  42.9978 273.7824 0001429 276.3423  83.7266 15.27592161 94432
STARLINK-32555          
1 61918U 24207G   26197.60846858  .00012313  00000+0  45614-3 0  9992
2 61918  43.0033 277.5612 0001895 273.0748  86.9886 15.27586199 94397
STARLINK-32547          
1 61919U 24207H   26197.28443926  .00007960  00000+0  29836-3 0  9996
2 61919  42.9971 275.1049 0001321 237.6151 122.4573 15.27591345 94380
STARLINK-32616          
1 61920U 24207J   26197.51529481  .00007154  00000+0  26914-3 0  9994
2 61920  43.0001 274.2581 0001647 280.9807  79.0859 15.27590087 94420
STARLINK-32605          
1 61921U 24207K   26197.62807650  .00010309  00000+0  38345-3 0  9991
2 61921  42.9998 273.3856 0001452 280.8170  79.2518 15.27593849 94440
STARLINK-32579          
1 61922U 24207L   26197.33150050  .00007057  00000+0  26565-3 0  9992
2 61922  42.9995 278.9208 0001308 280.5934  79.4770 15.27588976 94352
STARLINK-32537          
1 61923U 24207M   26197.61103450  .00006611  00000+0  24948-3 0  9994
2 61923  43.0017 277.5777 0001552 268.4674  91.6000 15.27589807 94393
STARLINK-32564          
1 61924U 24207N   26197.60461124  .00008154  00000+0  30535-3 0  9992
2 61924  43.0025 277.5302 0001349 277.1330  82.9368 15.27596455 94394
STARLINK-32536          
1 61925U 24207P   26197.28795780  .00006083  00000+0  23035-3 0  9991
2 61925  43.0016 279.4509 0001354 248.2786 111.7921 15.27587043 94349
STARLINK-32624          
1 61926U 24207Q   26197.60493994  .00012070  00000+0  44718-3 0  9994
2 61926  43.0056 273.2173 0003264 291.6877  68.3627 15.27595377 94448
STARLINK-32622          
1 61927U 24207R   26197.61265635  .00007253  00000+0  27273-3 0  9999
2 61927  43.0016 273.2722 0001838 273.2205  86.8436 15.27593653 94449
STARLINK-32620          
1 61928U 24207S   26197.57682399  .00006843  00000+0  25786-3 0  9996
2 61928  43.0003 273.8587 0001560 273.4646  86.6028 15.27591115 94439
STARLINK-32609          
1 61929U 24207T   26197.56911338  .00012417  00000+0  45971-3 0  9996
2 61929  43.0023 273.8021 0002114 279.6862  80.3751 15.27598915 94438
STARLINK-32567          
1 61930U 24207U   26197.19141404  .00010047  00000+0  37401-3 0  9992
2 61930  43.0034 272.6529 0001329 271.7309  88.3390 15.27591112 95001
STARLINK-32420          
1 61931U 24207V   26197.48959516  .00007223  00000+0  27166-3 0  9995
2 61931  43.0000 274.0662 0001632 270.1310  89.9355 15.27590352 94429
STARLINK-32354          
1 61932U 24207W   26197.60075486  .00006613  00000+0  24955-3 0  9990
2 61932  43.0015 277.4990 0001617 281.8743  78.1928 15.27590156 94887
STARLINK-32361          
1 61933U 24207X   26197.66790846  .00005753  00000+0  21837-3 0  9991
2 61933  43.0016 273.6641 0001574 275.7200  84.3473 15.27589644 94448
STARLINK-32500          
1 61935U 24207Z   26197.52380354  .00008691  00000+0  32484-3 0  9991
2 61935  42.9976 277.7787 0000993 265.2332  94.8406 15.27591077 94381
HAIYANG-4 01            
1 61936U 24208A   26197.87166028  .00000203  00000+0  39153-4 0  9993
2 61936  98.0037 205.2227 0002334  82.7336 277.4137 14.73283104 89815
STARLINK-11407 [DTC]    
1 61939U 24209A   26197.44613779  .00102318  00000+0  83800-3 0  9997
2 61939  53.1578  96.3171 0001178  67.0802 293.0341 15.69739083 96969
STARLINK-11337 [DTC]    
1 61940U 24209B   26197.44123228  .00139027  00000+0  11318-2 0  9995
2 61940  53.1578  96.2845 0001631  82.4467 277.6736 15.69741756 96944
STARLINK-11353 [DTC]    
1 61941U 24209C   26197.43632421  .00088281  00000+0  72484-3 0  9992
2 61941  53.1578  96.2510 0001018  80.0946 280.0187 15.69741849 96906
STARLINK-11320 [DTC]    
1 61942U 24209D   26197.81353950  .00177372  00000+0  14311-2 0  9996
2 61942  53.1571  95.0692 0001258  48.5898 311.5227 15.69822117 96957
STARLINK-11425 [DTC]    
1 61943U 24209E   26197.74496141  .00181148  00000+0  14643-2 0  9993
2 61943  53.1567  95.3503 0001422  99.0972 261.0206 15.69764546 96940
STARLINK-11422 [DTC]    
1 61944U 24209F   26197.74005709  .00143176  00000+0  11645-2 0  9998
2 61944  53.1573  95.3186 0001203 105.4721 254.6429 15.69748196 96944
STARLINK-11421 [DTC]    
1 61945U 24209G   26197.73514938  .00172394  00000+0  13942-2 0  9993
2 61945  53.1577  95.2856 0001011 112.1695 247.9430 15.69782973 96942
